IRNSS-1F                
1 41384U 16015A   19216.84125111  .00000140  00000-0  00000-0 0  9990
2 41384   2.6399 237.7031 0020243 191.3691 219.4139  1.00276841 12545
BEIDOU IGSO-6           
1 41434U 16021A   19217.37277652 -.00000157  00000-0  00000+0 0  9998
2 41434  56.6083  63.9051 0036549 197.7657 282.2347  1.00279656 12343
IRNSS-1G                
1 41469U 16027A   19217.50674061 -.00000354  00000-0  00000+0 0  9991
2 41469   2.6829 240.0766 0005865 213.7472 171.8864  1.00269559 12047
JCSAT 2B                
1 41471U 16028A   19217.15268333 -.00000185  00000-0  00000+0 0  9999
2 41471   0.0119  96.2050 0001824  25.6402  40.5174  1.00271064 11943
THAICOM 8               
1 41552U 16031A   19216.88382524 -.00000140  00000-0  00000-0 0  9993
2 41552   0.0778  56.2744 0002711  24.2296 269.2717  1.00269941 11564
INTELSAT 31 (IS-31)     
1 41581U 16035A   19217.24239693 -.00000170  00000-0  00000+0 0  9990
2 41581   0.0361 266.6855 0001172 330.3418  68.6676  1.00272308 11545
BEIDOU-2 G7             
1 41586U 16037A   19217.20642132 -.00000373  00000-0  00000+0 0  9994
2 41586   0.9453  45.7196 0005817  16.8971  75.6378  1.00266800 11632
ABS-2A (MONGOLSAT-1)    
1 41588U 16038A   19216.88382524 -.00000103  00000-0  00000-0 0  9998
2 41588   0.0095  95.7902 0002293 305.0788 305.1496  1.00271327 11554
EUTELSAT 117 WEST B     
1 41589U 16038B   19216.66787588 -.00000030  00000-0  00000-0 0  9993
2 41589   0.0073 195.3426 0000181 330.1430 270.8749  1.00271903 11555
BRISAT                  
1 41591U 16039A   19217.52410323 -.00000216  00000-0  00000+0 0  9998
2 41591   0.0129  85.6832 0002027  45.1727 162.1013  1.00268905 11493
ECHOSTAR 18             
1 41592U 16039B   19217.46861854 -.00000301  00000-0  00000+0 0  9996
2 41592   0.0165  91.1741 0001403  48.7322 281.1256  1.00276795 11488
MUOS-5                  
1 41622U 16041A   19217.02924382 -.00000153  00000-0  00000+0 0  9996
2 41622   7.9053 310.5280 0207280 209.5133  58.7786  1.00271551 11917
TIANTONG-1 1            
1 41725U 16048A   19216.92682954 -.00000333  00000-0  00000-0 0  9992
2 41725   3.4444 329.4594 0000576 174.5894 244.1666  1.00269504 11112
JCSAT-16                
1 41729U 16050A   19216.64414770 -.00000375  00000-0  00000-0 0  9993
2 41729   0.0439  93.5843 0002373 129.9218  85.2962  1.00271801 10913
INTELSAT 36 (IS-36)     
1 41747U 16053A   19216.71368896 -.00000043  00000-0  00000-0 0  9993
2 41747   0.0088  48.1227 0002261 313.0069 277.2592  1.00271700 10809
INTELSAT 33E (IS-33E)   
1 41748U 16053B   19217.11955887  .00000030  00000-0  00000+0 0  9995
2 41748   0.0093  56.9426 0002077  81.9289 277.5303  1.00271830 11071
INSAT-3DR               
1 41752U 16054A   19217.57380021 -.00000096  00000-0  00000+0 0  9996
2 41752   0.1297  99.4298 0010296 171.2770 323.6376  1.00270829 10655
GSAT-18                 
1 41793U 16060A   19216.84953851 -.00000095  00000-0  00000-0 0  9994
2 41793   0.0055 297.4902 0002949 147.1748 248.2291  1.00270399 10386
SKY MUSTER 2            
1 41794U 16060B   19217.52410323 -.00000264  00000-0  00000+0 0  9990
2 41794   0.0139 106.5036 0001681  19.8910 160.8679  1.00269789 10421
HIMAWARI-9              
1 41836U 16064A   19216.86288561 -.00000294  00000-0  00000-0 0  9998
2 41836   0.0163  10.2680 0000278 140.4632 253.7801  1.00270194 10032
SHIJIAN-17 (SJ-17)      
1 41838U 16065A   19217.71497957 -.00000281  00000-0  00000+0 0  9992
2 41838   0.8736  95.9341 0002140  11.9623 197.5843  1.00265884 10080
GOES 16                 
1 41866U 16071A   19217.48313118 -.00000267  00000-0  00000+0 0  9994
2 41866   0.0183  98.3053 0000404  71.4064 242.7582  1.00271233  9960
TIANLIAN 1-04           
1 41869U 16072A   19217.49627231 -.00000126  00000-0  00000+0 0  9997
2 41869   0.9627 283.4589 0015944 171.2721 114.7636  1.00272783 10163
WGS F8 (USA 272)        
1 41879U 16075A   19216.85216531 -.00000222  00000-0  00000-0 0  9995
2 41879   0.0124  76.5847 0000147  69.4353 263.6604  1.00271588  9779
FENGYUN 4A              
1 41882U 16077A   19216.92744020 -.00000349  00000-0  00000-0 0  9998
2 41882   0.0565  69.2316 0002448  84.0710 238.4573  1.00269429  9831
ECHOSTAR 19             
1 41893U 16079A   19217.08348470 -.00000158  00000-0  00000+0 0  9996
2 41893   0.0158  84.6428 0001286  41.7320 119.9055  1.00271964  9589
JCSAT-15                
1 41903U 16082A   19217.50281500 -.00000370  00000-0  00000+0 0  9995
2 41903   0.0180  99.8674 0001448  30.5667 114.4038  1.00268632  9632
STAR ONE D1             
1 41904U 16082B   19216.81804635 -.00000230  00000-0  00000-0 0  9995
2 41904   0.0104  40.0367 0002208  69.4353  54.1015  1.00272107  9620
TJS-2                   
1 41911U 17001A   19216.90118885 -.00000362  00000-0  00000-0 0  9996
2 41911   0.1987  94.7374 0005970 278.9275  11.4632  1.00270577  9575
SBIRS GEO-3 (USA 273)   
1 41937U 17004A   19216.80304177  .00000113  00000-0  00000-0 0  9990
2 41937   4.4242 312.1731 0002350 174.1928 316.3820  1.00271910  9443
HISPASAT 36W-1          
1 41942U 17006A   19217.08938309 -.00000263  00000-0  00000+0 0  9995
2 41942   0.0134 256.8128 0001049 238.1022 174.5986  1.00272386  9372
TELKOM 3S               
1 41944U 17007A   19216.85834934 -.00000382  00000-0  00000-0 0  9994
2 41944   0.0158  90.1000 0002127  34.5159 255.5103  1.00271240  8980
INTELSAT 32E (IS-32E)   
1 41945U 17007B   19216.68261876 -.00000288  00000-0  00000-0 0  9990
2 41945   0.0173  80.6324 0000635 299.1260 135.7445  1.00271170  9087
ECHOSTAR 23             
1 42070U 17014A   19216.53545174 -.00000295  00000-0  00000-0 0  9996
2 42070   0.0163  88.9492 0002103  40.3405 315.2394  1.00130535  8774
WGS F9 (USA 275)        
1 42075U 17016A   19216.77434115  .00000054  00000-0  00000-0 0  9993
2 42075   0.0092  93.9041 0000136 312.4141 242.2704  1.00272071  8743
SES-10                  
1 42432U 17017A   19217.18036425 -.00000292  00000-0  00000+0 0  9993
2 42432   0.0173  72.5097 0002681  62.9132 176.0406  1.00271010  8619
CHINASAT 16 (SJ-13)     
1 42662U 17018A   19216.85686633 -.00000371  00000-0  00000-0 0  9993
2 42662   0.0282  87.4993 0006284 131.8647 152.7070  1.00273651  8593
KOREASAT 7              
1 42691U 17023A   19217.43224116 -.00000381  00000-0  00000+0 0  9990
2 42691   0.0204  61.0775 0001795  89.5995  74.5121  1.00272254  8295
SGDC                    
1 42692U 17023B   19217.33687004 -.00000269  00000-0  00000+0 0  9994
2 42692   0.0126  68.9099 0002167  64.0855 227.0079  1.00272124  8306
GSAT-9                  
1 42695U 17024A   19217.06954750 -.00000305  00000-0  00000+0 0  9994
2 42695   0.1159 273.9103 0002082 213.5131 308.2173  1.00272076  8284
INMARSAT 5-F4           
1 42698U 17025A   19217.42035024  .00000056  00000-0  00000+0 0  9994
2 42698   0.0190  83.6840 0000476 229.6592 208.1393  1.00271860  8113
SES-15                  
1 42709U 17026A   19217.41527319  .00000041  00000-0  00000+0 0  9994
2 42709   0.0105  43.6359 0000614 101.5603 188.8077  1.00272123  9036
QZS-2  (MICHIBIKI-2)    
1 42738U 17028A   19216.56353354 -.00000179  00000-0  00000-0 0  9993
2 42738  43.5207 278.8562 0754961 269.5381 107.3943  1.00277919  7988
VIASAT-2                
1 42740U 17029A   19217.48313118 -.00000284  00000-0  00000+0 0  9999
2 42740   0.0192 101.9187 0000235 285.6695  30.1510  1.00269104  8044
EUTELSAT 172B           
1 42741U 17029B   19217.51299432 -.00000025  00000-0  00000+0 0  9999
2 42741   0.0262 100.9529 0000458 197.8389  11.6536  1.00271770  8553
GSAT-19                 
1 42747U 17031A   19216.84430435  .00000106  00000-0  00000-0 0  9993
2 42747   0.1134 272.7028 0005457 161.4197 230.7839  1.00272885  7982
ECHOSTAR 21             
1 42749U 17032A   19216.83313317  .00000049  00000-0  00000-0 0  9990
2 42749   6.1234 314.4383 0001960 184.0330 124.7949  1.00272897  7958
CHINASAT 9A (ZX 9A)     
1 42763U 17035A   19216.92682954 -.00000332  00000-0  00000-0 0  9991
2 42763   0.0566 262.7604 0002951 209.3716 276.1130  1.00273304  8506
BULGARIASAT-1           
1 42801U 17038A   19217.07271458 -.00000008  00000-0  00000+0 0  9996
2 42801   0.0422 265.3480 0002678 226.3006 209.7470  1.00271634  7757
HELLAS-SAT 3            
1 42814U 17040A   19217.48868279  .00000133  00000-0  00000+0 0  9999
2 42814   0.0514  53.2116 0003044  25.0986  90.3339  1.00270169  7730
GSAT-17                 
1 42815U 17040B   19217.06884962 -.00000276  00000-0  00000+0 0  9990
2 42815   0.0126 281.0155 0001931 322.0948 188.4926  1.00268409  7729
INTELSAT 35E (IS-35E)   
1 42818U 17041A   19217.47402716 -.00000257  00000-0  00000+0 0  9991
2 42818   0.0477 252.5085 0001541 221.8297 335.5202  1.00269521  7690
COSMOS 2520             
1 42907U 17046A   19217.18211806  .00000118  00000-0  00000+0 0  9996
2 42907   0.0207 112.7609 0000632 195.8432 115.3820  1.00273871  7244
TDRS 13                 
1 42915U 17047A   19217.11785510 -.00000115  00000-0  00000+0 0  9995
2 42915   6.0525 330.3651 0014671  96.6967 277.2804  1.00271447  7232
QZS-3 (MICHIBIKI-3)     
1 42917U 17048A   19217.53521747 -.00000367  00000-0  00000+0 0  9993
2 42917   0.0564 211.0523 0001415 292.8616 129.5478  1.00267559  7221
AMAZONAS 5              
1 42934U 17053A   19216.53545174 -.00000301  00000-0  00000-0 0  9996
2 42934   0.0403 282.6501 0002222 185.7045 336.1855  1.00270909  6974
ASIASAT 9               
1 42942U 17057A   19216.93092963 -.00000379  00000-0  00000-0 0  9991
2 42942   0.0068 103.7332 0002014  21.6033 285.0745  1.00269463  6792
INTELSAT 37E (IS-37E)   
1 42950U 17059A   19217.33372498 -.00000160  00000-0  00000+0 0  9998
2 42950   0.0139 110.3197 0003230  36.1230 269.2830  1.00270116  6903
BSAT-4A                 
1 42951U 17059B   19217.50281500 -.00000369  00000-0  00000+0 0  9992
2 42951   0.0363   2.8547 0002970  84.7583 156.9919  1.00272034  6807
